1 41175U 15079B   23041.23267065  .00000013  00000-0  00000+0 0  9994
2 41175  55.2260 134.8637 0002383 298.6141  61.3942  1.70474879 44504
1 41175U 15079B   23046.51187519 -.00000006  00000-0  00000-0 0  9999
2 41175  55.2273 134.7183 0002550 298.1015  61.8950  1.70474812 44437
1 41175U 15079B   23046.51187519 -.00000006  00000-0  00000+0 0  9998
2 41175  55.2273 134.7183 0002550 298.1015  61.8950  1.70474812 44594
1 41175U 15079B   23048.27161890 -.00000011  00000-0  00000-0 0  9994
2 41175  55.2278 134.6698 0002691 297.7814  62.2159  1.70474763 44464
1 41175U 15079B   23048.27161890 -.00000011  00000-0  00000+0 0  9993
2 41175  55.2278 134.6698 0002691 297.7814  62.2159  1.70474763 44622
1 41175U 15079B   23050.61796195 -.00000007  00000-0  00000-0 0  9992
2 41175  55.2286 134.6052 0002945 296.8845  63.1236  1.70474709 44504
1 41175U 15079B   23050.61796258 -.00000007  00000-0  00000-0 0  9992
2 41175  55.2286 134.6052 0002919 297.0124  62.9959  1.70474704 44502
1 41175U 15079B   23050.61796258 -.00000007  00000-0  00000+0 0  9991
2 41175  55.2286 134.6052 0002919 297.0124  62.9959  1.70474704 44669
1 41175U 15079B   23053.55088656 -.00000006  00000-0  00000-0 0  9993
2 41175  55.2294 134.5244 0003182 296.3077  63.7121  1.70474730 44559
1 41175U 15079B   23053.55088656 -.00000006  00000-0  00000+0 0  9992
2 41175  55.2294 134.5244 0003182 296.3077  63.7121  1.70474730 44717
1 41175U 15079B   23055.31062616 -.00000014  00000-0  00000+0 0  9995
2 41175  55.2298 134.4759 0003409 295.9301  64.0868  1.70474745 44749
1 41175U 15079B   23055.89720414 -.00000018  00000-0  00000-0 0  9990
2 41175  55.2300 134.4597 0003538 295.3737  64.6404  1.70474735 44609
1 41175U 15079B   23057.07035961 -.00000025  00000-0  00000-0 0  9996
2 41175  55.2303 134.4274 0003603 295.6768  64.3334  1.70474756 44617
1 41175U 15079B   23057.07035961 -.00000025  00000-0  00000+0 0  9995
2 41175  55.2303 134.4274 0003603 295.6768  64.3334  1.70474756 44774
1 41175U 15079B   23058.24351512 -.00000029  00000-0  00000-0 0  9993
2 41175  55.2307 134.3951 0003599 295.9473  64.0604  1.70474808 44639
1 41175U 15079B   23058.24351512 -.00000029  00000-0  00000+0 0  9992
2 41175  55.2307 134.3951 0003599 295.9473  64.0604  1.70474808 44796
1 41175U 15079B   23060.00325538 -.00000027  00000-0  00000-0 0  9997
2 41175  55.2312 134.3467 0004253 295.0863  64.9143  1.70474765 44661
1 41175U 15079B   23060.00325538 -.00000027  00000-0  00000+0 0  9996
2 41175  55.2312 134.3467 0004253 295.0863  64.9143  1.70474765 44829
1 41175U 15079B   23064.10935086  .00000001  00000-0  00000-0 0  9998
2 41175  55.2323 134.2337 0003223 302.3244  57.7100  1.70474857 44732
1 41175U 15079B   23064.10935086  .00000001  00000-0  00000+0 0  9997
2 41175  55.2323 134.2337 0003223 302.3244  57.7100  1.70474857 44899
1 41175U 15079B   23065.86911035  .00000016  00000-0  00000-0 0  9996
2 41175  55.2329 134.1852 0003422 301.3159  58.7286  1.70474834 44768
1 41175U 15079B   23065.86911035  .00000016  00000-0  00000+0 0  9995
2 41175  55.2329 134.1852 0003422 301.3159  58.7286  1.70474834 44926
1 41175U 15079B   23070.56176512  .00000033  00000-0  00000-0 0  9991
2 41175  55.2353 134.0562 0003445 298.7215  61.3288  1.70474721 44845
1 41175U 15079B   23070.56176512  .00000033  00000-0  00000+0 0  9990
2 41175  55.2353 134.0562 0003445 298.7215  61.3288  1.70474721 45004
1 41175U 15079B   23071.73491680  .00000030  00000-0  00000-0 0  9994
2 41175  55.2356 134.0238 0003807 296.5926  63.4484  1.70474675 44866
1 41175U 15079B   23071.73491763  .00000030  00000-0  00000-0 0  9996
2 41175  55.2356 134.0239 0003817 295.8518  64.1889  1.70474699 44860
1 41175U 15079B   23072.90806886  .00000024  00000-0  00000-0 0  9995
2 41175  55.2366 133.9915 0003437 299.2472  60.7932  1.70474712 44884
1 41175U 15079B   23072.90806886  .00000024  00000-0  00000+0 0  9994
2 41175  55.2366 133.9915 0003437 299.2472  60.7932  1.70474712 45043
1 41175U 15079B   23075.25438508  .00000017  00000-0  00000-0 0  9990
2 41175  55.2371 133.9269 0003640 297.8310  62.2034  1.70474693 44926
1 41175U 15079B   23075.25438508  .00000017  00000-0  00000+0 0  9999
2 41175  55.2371 133.9269 0003640 297.8310  62.2034  1.70474693 45084
1 41175U 15079B   23075.84096674  .00000017  00000-0  00000-0 0  9999
2 41175  55.2373 133.9107 0003675 298.1961  61.8392  1.70474681 44933
1 41175U 15079B   23077.60072047  .00000022  00000-0  00000-0 0  9999
2 41175  55.2379 133.8623 0003790 297.5858  62.4557  1.70474695 44976
1 41175U 15079B   23077.60072047  .00000022  00000-0  00000+0 0  9998
2 41175  55.2379 133.8623 0003790 297.5858  62.4557  1.70474695 45124
1 41175U 15079B   23079.36047582  .00000028  00000-0  00000-0 0  9996
2 41175  55.2384 133.8138 0003954 296.7316  63.3161  1.70474709 44994
1 41175U 15079B   23079.36047582  .00000028  00000-0  00000+0 0  9995
2 41175  55.2384 133.8138 0003954 296.7316  63.3161  1.70474709 45153
1 41175U 15079B   23081.12022284  .00000026  00000-0  00000-0 0  9993
2 41175  55.2355 133.7648 0003972 295.7779  64.2717  1.70474675 45023
1 41175U 15079B   23081.12022284  .00000026  00000-0  00000+0 0  9992
2 41175  55.2355 133.7648 0003972 295.7779  64.2717  1.70474675 45180
1 41175U 15079B   23082.87995708  .00000018  00000-0  00000-0 0  9997
2 41175  55.2362 133.7163 0004360 296.4255  63.6155  1.70474482 45050
1 41175U 15079B   23082.87995708  .00000018  00000-0  00000+0 0  9996
2 41175  55.2362 133.7163 0004360 296.4255  63.6155  1.70474482 45218
1 41175U 15079B   23084.05310944  .00000011  00000-0  00000-0 0  9995
2 41175  55.2381 133.6842 0004367 296.3844  63.6510  1.70474587 45077
1 41175U 15079B   23084.05310944  .00000011  00000-0  00000+0 0  9994
2 41175  55.2381 133.6842 0004367 296.3844  63.6510  1.70474587 45235
1 41175U 15079B   23084.63968581  .00000008  00000-0  00000-0 0  9991
2 41175  55.2388 133.6683 0004099 297.0776  62.9580  1.70474769 45083
1 41175U 15079B   23086.98599665  .00000007  00000-0  00000-0 0  9993
2 41175  55.2397 133.6037 0004150 297.3807  62.6473  1.70474816 45128
1 41175U 15079B   23086.98599665  .00000007  00000-0  00000+0 0  9992
2 41175  55.2397 133.6037 0004150 297.3807  62.6473  1.70474816 45285
1 41175U 15079B   23088.74574098  .00000017  00000-0  00000+0 0  9992
2 41175  55.2404 133.5553 0004206 297.7341  62.2948  1.70474861 45312
1 41175U 15079B   23089.33232441  .00000021  00000-0  00000-0 0  9997
2 41175  55.2408 133.5392 0004205 297.7979  62.2328  1.70474870 45168
1 41175U 15079B   23090.50549376  .00000031  00000-0  00000-0 0  9997
2 41175  55.2412 133.5070 0004217 297.8249  62.2105  1.70474875 45180
1 41175U 15079B   23090.50549376  .00000031  00000-0  00000+0 0  9996
2 41175  55.2412 133.5070 0004217 297.8249  62.2105  1.70474875 45348
1 41175U 15079B   23092.26524967  .00000046  00000-0  00000-0 0  9997
2 41175  55.2419 133.4586 0004288 297.9718  62.0717  1.70474865 45218
1 41175U 15079B   23092.26524967  .00000046  00000-0  00000+0 0  9996
2 41175  55.2419 133.4586 0004288 297.9718  62.0717  1.70474865 45375
1 41175U 15079B   23094.61158525  .00000064  00000-0  00000-0 0  9991
2 41175  55.2428 133.3941 0004332 298.1566  61.8947  1.70474829 45252
1 41175U 15079B   23094.61158525  .00000064  00000-0  00000+0 0  9990
2 41175  55.2428 133.3941 0004332 298.1566  61.8947  1.70474829 45410
1 41175U 15079B   23096.37132582  .00000072  00000-0  00000-0 0  9990
2 41175  55.2435 133.3457 0004378 298.4023  61.6475  1.70474762 45286
1 41175U 15079B   23096.37132582  .00000072  00000-0  00000+0 0  9999
2 41175  55.2435 133.3457 0004378 298.4023  61.6475  1.70474762 45444
1 41175U 15079B   23100.47735915  .00000062  00000-0  00000-0 0  9995
2 41175  55.2451 133.2329 0005472 296.3396  63.6751  1.70474412 45356
1 41175U 15079B   23100.47735915  .00000062  00000-0  00000+0 0  9994
2 41175  55.2451 133.2329 0005472 296.3396  63.6751  1.70474412 45514
1 41175U 15079B   23102.23709151  .00000056  00000-0  00000-0 0  9997
2 41175  55.2460 133.1845 0004651 301.4926  58.5262  1.70474418 45382
1 41175U 15079B   23102.23709151  .00000056  00000-0  00000+0 0  9996
2 41175  55.2460 133.1845 0004651 301.4926  58.5262  1.70474418 45540
1 41175U 15079B   23105.17000397  .00000061  00000-0  00000+0 0  9994
2 41175  55.2472 133.1039 0004648 299.7996  60.2225  1.70474491 45595
1 41175U 15079B   23105.17000399  .00000061  00000-0  00000-0 0  9997
2 41175  55.2478 133.1040 0004652 299.7739  60.2481  1.70474486 45434
1 41175U 15079B   23106.34317208  .00000064  00000-0  00000+0 0  9999
2 41175  55.2483 133.0717 0004706 300.3087  59.7161  1.70474480 45617
1 41175U 15079B   23106.34317212  .00000064  00000-0  00000-0 0  9995
2 41175  55.2484 133.0717 0004711 300.2618  59.7630  1.70474475 45450
1 41175U 15079B   23106.92975470  .00000065  00000-0  00000-0 0  9996
2 41175  55.2487 133.0556 0004785 300.8600  59.1650  1.70474470 45464
1 41175U 15079B   23108.10291663  .00000064  00000-0  00000-0 0  9992
2 41175  55.2489 133.0233 0004672 299.6185  60.4062  1.70474506 45480
1 41175U 15079B   23108.10291663  .00000064  00000-0  00000+0 0  9991
2 41175  55.2489 133.0233 0004672 299.6185  60.4062  1.70474506 45648
1 41175U 15079B   23109.86264870  .00000055  00000-0  00000-0 0  9996
2 41175  55.2497 132.9749 0004739 300.0091  60.0077  1.70474533 45512
1 41175U 15079B   23109.86264870  .00000055  00000-0  00000+0 0  9995
2 41175  55.2497 132.9749 0004739 300.0091  60.0077  1.70474533 45679
1 41175U 15079B   23110.44922425  .00000051  00000-0  00000-0 0  9995
2 41175  55.2500 132.9588 0004686 299.4672  60.5462  1.70474550 45528
1 41175U 15079B   23112.20894913  .00000041  00000-0  00000-0 0  9990
2 41175  55.2507 132.9105 0004780 300.1779  59.8228  1.70474581 45551
1 41175U 15079B   23112.20894913  .00000041  00000-0  00000+0 0  9999
2 41175  55.2507 132.9105 0004780 300.1779  59.8228  1.70474581 45719
1 41175U 15079B   23115.14183720  .00000042  00000-0  00000-0 0  9994
2 41175  55.2520 132.8298 0004763 300.5537  59.4357  1.70474674 45603
